OBJECT_NAME,OBJECT_ID,EPOCH,MEAN_MOTION,ECCENTRICITY,INCLINATION,RA_OF_ASC_NODE,ARG_OF_PERICENTER,MEAN_ANOMALY,EPHEMERIS_TYPE,CLASSIFICATION_TYPE,NORAD_CAT_ID,ELEMENT_SET_NO,REV_AT_EPOCH,BSTAR,MEAN_MOTION_DOT,MEAN_MOTION_DDOT
KUIPER-00513,2026-140G,2026-07-13T13:49:21.463104,15.38131060,.0007374,51.8805,271.0911,332.3120,27.7473,0,U,69598,999,529,.23283E-3,.8498E-4,0
KUIPER-00516,2026-140H,2026-07-13T12:26:51.443808,15.37574352,.0006953,51.8792,271.4472,348.9117,11.1715,0,U,69599,999,528,.30577E-3,.11081E-3,0
KUIPER-00517,2026-140J,2026-07-13T11:54:57.842784,15.38808019,.0010804,51.8779,271.3024,285.7132,74.2664,0,U,69600,999,528,.54021519E-3,.20755E-3,0
KUIPER-00520,2026-140K,2026-07-13T12:28:11.801856,15.37626046,.0006927,51.8816,271.4642,349.6934,10.3909,0,U,69601,999,528,.31946E-3,.11615E-3,0
KUIPER-00522,2026-140L,2026-07-13T10:16:30.505440,15.38633873,.00134809,51.8788,271.5961,257.5942,102.3537,0,U,69602,999,527,.47319856E-3,.18038E-3,0
KUIPER-00528,2026-140M,2026-07-13T12:31:49.853856,15.37479349,.0005804,51.8786,271.4722,356.5251,3.5694,0,U,69603,999,528,.35179E-3,.12768E-3,0
KUIPER-00532,2026-140N,2026-07-13T11:12:57.353472,15.36572721,.00057092,51.8801,271.8505,25.8262,334.3009,0,U,69604,999,527,-.19588602E-4,-.1101E-4,0
KUIPER-00533,2026-140P,2026-07-13T10:36:42.595488,15.38246977,.00078813,51.8795,271.6855,320.9499,39.0918,0,U,69605,999,527,.27595821E-3,.10189E-3,0
KUIPER-00534,2026-140Q,2026-07-13T11:42:47.866464,15.38704340,.00136826,51.8817,271.2551,259.7255,100.2190,0,U,69606,999,528,.4918051E-3,.18811E-3,0
KUIPER-00537,2026-140R,2026-07-13T10:10:01.768512,15.34217577,.00096535,51.8797,272.3084,48.0807,312.1001,0,U,69607,999,526,.65641109E-3,.21784E-3,0
KUIPER-00538,2026-140S,2026-07-13T12:24:45.527040,15.37710765,.000669,51.8809,271.4458,337.5017,22.5675,0,U,69608,999,528,.30901E-3,.11253E-3,0
KUIPER-00540,2026-140T,2026-07-13T12:40:43.686624,15.36946230,.000657,51.8824,271.5191,18.6621,341.4606,0,U,69609,999,528,.34891E-3,.1244E-3,0
KUIPER-00541,2026-140U,2026-07-13T16:00:01.998720,15.38366440,.0007816,51.8811,270.6117,318.6400,206.7793,0,U,69610,999,522,.15508E-2,.59718E-3,0
KUIPER-00542,2026-140V,2026-07-13T10:34:29.005536,15.38267694,.00075368,51.8779,271.6832,294.9408,65.0795,0,U,69611,999,527,.62043738E-3,.23461E-3,0
KUIPER-00543,2026-140W,2026-07-13T11:13:27.480288,15.36825871,.0007255,51.8799,271.8471,31.7570,328.3853,0,U,69612,999,527,.49294994E-3,.17683E-3,0
KUIPER-00544,2026-140X,2026-07-13T10:40:45.159168,15.38153379,.00066107,51.8785,271.7055,313.6004,46.4434,0,U,69613,999,527,.42036075E-3,.15688E-3,0
KUIPER-00546,2026-140Y,2026-07-13T11:43:33.415680,15.38855435,.001454,51.8793,271.2530,256.4285,103.5083,0,U,69614,999,528,.45921075E-3,.1763E-3,0
KUIPER-00547,2026-140Z,2026-07-13T10:31:56.350560,15.37892177,.0010935,51.8819,271.6758,283.9761,76.0010,0,U,69615,999,527,.28773637E-3,.10524E-3,0
KUIPER-00549,2026-140AA,2026-07-13T12:34:00.791328,15.37317461,.0008166,51.8795,271.4828,9.6406,350.4736,0,U,69616,999,528,.30825E-3,.11082E-3,0
KUIPER-00550,2026-140AB,2026-07-13T20:00:01.999008,15.32083597,.0007743,51.8784,270.4827,57.2456,333.0436,0,U,69617,999,457,-.67458E-3,-.21538E-3,0
KUIPER-00551,2026-140AC,2026-07-13T10:20:39.544800,15.38372797,.00128617,51.8767,271.6138,258.5596,101.3947,0,U,69618,999,527,.65439121E-3,.24901E-3,0
KUIPER-00554,2026-140AD,2026-07-13T08:55:48.396288,15.37954532,.00110471,51.8784,271.9686,284.4543,75.5218,0,U,69619,999,526,.35643934E-3,.13165E-3,0
KUIPER-00555,2026-140AE,2026-07-13T10:25:28.602048,15.37923651,.00114194,51.8817,271.6476,272.6291,87.3389,0,U,69620,999,527,.29299938E-3,.10737E-3,0
KUIPER-00556,2026-140AF,2026-07-12T20:22:38.974944,15.37854962,.001062,51.8804,274.4699,249.9236,110.0608,0,U,69621,999,518,-.48964841E-2,-.181525E-2,0
KUIPER-00557,2026-140AG,2026-07-13T10:37:04.841760,15.37501873,.00097951,51.8797,271.6977,292.8339,67.1613,0,U,69622,999,527,.37276538E-3,.13577E-3,0
KUIPER-00560,2026-140AH,2026-07-13T19:45:27.472032,15.38977477,.0012683,51.8788,269.7458,288.2961,71.6647,0,U,69623,999,533,.35979E-2,.143677E-2,0
KUIPER-00561,2026-140AJ,2026-07-11T17:56:40.634592,15.38107852,.00092458,51.8826,279.8412,285.6749,74.3218,0,U,69624,999,501,-.15960765E-1,-.566727E-2,0
KUIPER-00564,2026-140AK,2026-07-13T10:32:13.935552,15.37234658,.0009106,51.8803,271.6737,291.5135,68.4880,0,U,69625,999,527,-.74902183E-3,-.28077E-3,0
KUIPER-00567,2026-140AL,2026-07-13T10:21:31.335552,15.38220368,.00117776,51.8817,271.6217,274.1062,85.8579,0,U,69626,999,527,.38232907E-3,.14281E-3,0
KUIPER-00573,2026-140AM,2026-07-13T12:16:06.239712,15.37449379,.0009294,51.8777,271.4001,279.5225,80.4712,0,U,69627,999,528,.34255E-3,.12419E-3,0
